{
    "links": {
        "self": "http://www.neowsapp.com/rest/v1/neo/3250109?api_key=iIulBulltgU6a56xZRHN4H3l9WmuAYTsLGpBGhQ2"
    },
    "id": "3250109",
    "neo_reference_id": "3250109",
    "name": "(2004 QN5)",
    "designation": "2004 QN5",
    "nasa_jpl_url": "http://ssd.jpl.nasa.gov/sbdb.cgi?sstr=3250109",
    "absolute_magnitude_h": 21.3,
    "estimated_diameter": {
        "kilometers": {
            "estimated_diameter_min": 0.1460679643,
            "estimated_diameter_max": 0.3266178974
        },
        "meters": {
            "estimated_diameter_min": 146.0679642714,
            "estimated_diameter_max": 326.6178974458
        },
        "miles": {
            "estimated_diameter_min": 0.090762397,
            "estimated_diameter_max": 0.2029508896
        },
        "feet": {
            "estimated_diameter_min": 479.2256199,
            "estimated_diameter_max": 1071.581062656
        }
    },
    "is_potentially_hazardous_asteroid": false,
    "close_approach_data": [
        {
            "close_approach_date": "2004-08-10",
            "close_approach_date_full": "2004-Aug-10 00:09",
            "epoch_date_close_approach": 1092096540000,
            "relative_velocity": {
                "kilometers_per_second": "3.6159496169",
                "kilometers_per_hour": "13017.4186208316",
                "miles_per_hour": "8088.5176980384"
            },
            "miss_distance": {
                "astronomical": "0.2460492027",
                "lunar": "95.7131398503",
                "kilometers": "36808436.639118249",
                "miles": "22871701.9526358762"
            },
            "orbiting_body": "Earth"
        }
    ],
    "orbital_data": {
        "orbit_id": "14",
        "orbit_determination_date": "2017-04-06 09:12:27",
        "first_observation_date": "2004-08-22",
        "last_observation_date": "2004-10-08",
        "data_arc_in_days": 47,
        "observations_used": 50,
        "orbit_uncertainty": "6",
        "minimum_orbit_intersection": ".245041",
        "jupiter_tisserand_invariant": "3.626",
        "epoch_osculation": "2459000.5",
        "eccentricity": ".4045638647915788",
        "semi_major_axis": "2.109185347367944",
        "inclination": "5.617200148917573",
        "ascending_node_longitude": "335.7052463432705",
        "orbital_period": "1118.846596947307",
        "perihelion_distance": "1.255885171675",
        "perihelion_argument": "343.130257878227",
        "aphelion_distance": "2.962485523060888",
        "perihelion_time": "2458824.631176041830",
        "mean_anomaly": "56.58754005927678",
        "mean_motion": ".3217599275738374",
        "equinox": "J2000",
        "orbit_class": {
            "orbit_class_type": "AMO",
            "orbit_class_description": "Near-Earth asteroid orbits similar to that of 1221 Amor",
            "orbit_class_range": "1.017 AU < q (perihelion) < 1.3 AU"
        }
    },
    "is_sentry_object": false
}